{"type":"FeatureCollection","name":"dartmoor-peaks","features":[{"type":"Feature","properties":{"id":"node/29547051","ele":"476","name":"Rippon Tor","cz":false,"fz":null},"geometry":{"type":"Point","coordinates":[-3.771151,50.56644]}},{"type":"Feature","properties":{"id":"node/29547052","ele":null,"name":"Saddle Tor","cz":false,"fz":null},"geometry":{"type":"Point","coordinates":[-3.765464,50.574079]}},{"type":"Feature","properties":{"id":"node/29547054","ele":null,"name":"Bag Tor","cz":false,"fz":null},"geometry":{"type":"Point","coordinates":[-3.749814,50.568658]}},{"type":"Feature","properties":{"id":"node/29547057","ele":"419","name":"Hound Tor","cz":false,"fz":null},"geometry":{"type":"Point","coordinates":[-3.778105,50.59676]}},{"type":"Feature","properties":{"id":"node/29737087","ele":null,"name":"Top Tor","cz":true,"fz":null},"geometry":{"type":"Point","coordinates":[-3.786103,50.572342]}},{"type":"Feature","properties":{"id":"node/29737088","ele":null,"name":"Pil Tor","cz":true,"fz":null},"geometry":{"type":"Point","coordinates":[-3.787504,50.569538]}},{"type":"Feature","properties":{"id":"node/206108752","ele":"452","name":"Middle Staple Tor","cz":true,"fz":null},"geometry":{"type":"Point","coordinates":[-4.062057,50.562138]}},{"type":"Feature","properties":{"id":"node/324412632","ele":"452","name":"South Hessary Tor","cz":false,"fz":null},"geometry":{"type":"Point","coordinates":[-3.980615,50.534137]}},{"type":"Feature","properties":{"id":"node/325211997","ele":"468","name":"Rowtor","cz":true,"fz":"okehampton"},"geometry":{"type":"Point","coordinates":[-3.993547,50.707427]}},{"type":"Feature","properties":{"id":"node/325212179","ele":"541","name":"West Mill Tor","cz":true,"fz":"okehampton"},"geometry":{"type":"Point","coordinates":[-4.001417,50.701809]}},{"type":"Feature","properties":{"id":"node/325680713","ele":"621","name":"High Willhays","cz":true,"fz":"okehampton"},"geometry":{"type":"Point","coordinates":[-4.011154,50.685224]}},{"type":"Feature","properties":{"id":"node/325680850","ele":"619","name":"Yes Tor","cz":true,"fz":"okehampton"},"geometry":{"type":"Point","coordinates":[-4.010969,50.693944]}},{"type":"Feature","properties":{"id":"node/325955887","ele":"514","name":"Beardown Tors","cz":false,"fz":null},"geometry":{"type":"Point","coordinates":[-3.975417,50.579146]}},{"type":"Feature","properties":{"id":"node/325961405","ele":null,"name":"Arch Tor","cz":false,"fz":null},"geometry":{"type":"Point","coordinates":[-3.93091,50.587286]}},{"type":"Feature","properties":{"id":"node/325962314","ele":"522","name":"Higher White Tor","cz":false,"fz":null},"geometry":{"type":"Point","coordinates":[-3.951522,50.590637]}},{"type":"Feature","properties":{"id":"node/325962669","ele":null,"name":"Lower White Tor","cz":true,"fz":null},"geometry":{"type":"Point","coordinates":[-3.952171,50.596465]}},{"type":"Feature","properties":{"id":"node/325963118","ele":null,"name":"Crow Tor","cz":true,"fz":null},"geometry":{"type":"Point","coordinates":[-3.969718,50.591618]}},{"type":"Feature","properties":{"id":"node/325964105","ele":"443","name":"Bellever Tor","cz":false,"fz":null},"geometry":{"type":"Point","coordinates":[-3.915378,50.571915]}},{"type":"Feature","properties":{"id":"node/325964936","ele":null,"name":"Lakehead Hill","cz":false,"fz":null},"geometry":{"type":"Point","coordinates":[-3.91627,50.582128]}},{"type":"Feature","properties":{"id":"node/325969243","ele":"546","name":"Rough Tor","cz":true,"fz":"merrivale"},"geometry":{"type":"Point","coordinates":[-3.971096,50.601438]}},{"type":"Feature","properties":{"id":"node/325969767","ele":null,"name":"Hartland Tor","cz":false,"fz":null},"geometry":{"type":"Point","coordinates":[-3.920539,50.603303]}},{"type":"Feature","properties":{"id":"node/325970622","ele":"449","name":"Merripit Hill","cz":true,"fz":null},"geometry":{"type":"Point","coordinates":[-3.898109,50.607334]}},{"type":"Feature","properties":{"id":"node/325970961","ele":"462","name":"Stannon Tor","cz":false,"fz":null},"geometry":{"type":"Point","coordinates":[-3.914407,50.614095]}},{"type":"Feature","properties":{"id":"node/325971740","ele":"538","name":"Sittaford Tor","cz":false,"fz":null},"geometry":{"type":"Point","coordinates":[-3.933967,50.631079]}},{"type":"Feature","properties":{"id":"node/325973635","ele":null,"name":"Devil's Tor","cz":true,"fz":"merrivale"},"geometry":{"type":"Point","coordinates":[-3.984593,50.599409]}},{"type":"Feature","properties":{"id":"node/325973892","ele":null,"name":"Lydford Tor","cz":false,"fz":"merrivale"},"geometry":{"type":"Point","coordinates":[-3.98004,50.586326]}},{"type":"Feature","properties":{"id":"node/325974229","ele":null,"name":"Conies Down Tor","cz":true,"fz":"merrivale"},"geometry":{"type":"Point","coordinates":[-3.994841,50.594677]}},{"type":"Feature","properties":{"id":"node/325974491","ele":null,"name":"Maiden Hill","cz":true,"fz":"merrivale"},"geometry":{"type":"Point","coordinates":[-3.997957,50.600117]}},{"type":"Feature","properties":{"id":"node/325975319","ele":"492","name":"Black Dunghill","cz":true,"fz":"merrivale"},"geometry":{"type":"Point","coordinates":[-4.005724,50.579467]}},{"type":"Feature","properties":{"id":"node/325977765","ele":null,"name":"Little King's Tor","cz":false,"fz":null},"geometry":{"type":"Point","coordinates":[-4.045679,50.547243]}},{"type":"Feature","properties":{"id":"node/325978018","ele":null,"name":"Hollow Tor","cz":false,"fz":null},"geometry":{"type":"Point","coordinates":[-4.018455,50.5531]}},{"type":"Feature","properties":{"id":"node/325980539","ele":"373","name":"Black Tor","cz":false,"fz":null},"geometry":{"type":"Point","coordinates":[-4.014179,50.528423]}},{"type":"Feature","properties":{"id":"node/325980741","ele":null,"name":"Ingra Tor","cz":true,"fz":null},"geometry":{"type":"Point","coordinates":[-4.039624,50.531073]}},{"type":"Feature","properties":{"id":"node/325982041","ele":"389","name":"Leeden Tor","cz":false,"fz":null},"geometry":{"type":"Point","coordinates":[-4.029017,50.527311]}},{"type":"Feature","properties":{"id":"node/325984218","ele":null,"name":"Leather Tor","cz":false,"fz":null},"geometry":{"type":"Point","coordinates":[-4.028432,50.511893]}},{"type":"Feature","properties":{"id":"node/325984681","ele":"371","name":"Lowery Tor","cz":false,"fz":null},"geometry":{"type":"Point","coordinates":[-4.037422,50.50984]}},{"type":"Feature","properties":{"id":"node/325991969","ele":null,"name":"Cramber Tor","cz":false,"fz":null},"geometry":{"type":"Point","coordinates":[-3.999238,50.523257]}},{"type":"Feature","properties":{"id":"node/325992944","ele":"386","name":"Hart Tor","cz":false,"fz":null},"geometry":{"type":"Point","coordinates":[-4.003398,50.530643]}},{"type":"Feature","properties":{"id":"node/325999197","ele":null,"name":"Hucken Tor","cz":false,"fz":null},"geometry":{"type":"Point","coordinates":[-4.049884,50.546425]}},{"type":"Feature","properties":{"id":"node/326004785","ele":"443","name":"Cox Tor","cz":true,"fz":null},"geometry":{"type":"Point","coordinates":[-4.076261,50.566822]}},{"type":"Feature","properties":{"id":"node/326005034","ele":null,"name":"Little Mis Tor","cz":true,"fz":null},"geometry":{"type":"Point","coordinates":[-4.029097,50.568713]}},{"type":"Feature","properties":{"id":"node/326006272","ele":"538","name":"Great Mis Tor","cz":true,"fz":null},"geometry":{"type":"Point","coordinates":[-4.03105,50.574114]}},{"type":"Feature","properties":{"id":"node/326006678","ele":"501","name":"Cocks Hill","cz":true,"fz":"merrivale"},"geometry":{"type":"Point","coordinates":[-4.02339,50.592895]}},{"type":"Feature","properties":{"id":"node/326008795","ele":"465","name":"White Tor","cz":true,"fz":null},"geometry":{"type":"Point","coordinates":[-4.060422,50.58945]}},{"type":"Feature","properties":{"id":"node/326010003","ele":"336","name":"Boulters Tor","cz":true,"fz":null},"geometry":{"type":"Point","coordinates":[-4.08494,50.583598]}},{"type":"Feature","properties":{"id":"node/326011126","ele":"517","name":"Lynch Tor","cz":true,"fz":"merrivale"},"geometry":{"type":"Point","coordinates":[-4.028442,50.606706]}},{"type":"Feature","properties":{"id":"node/326011801","ele":null,"name":"Standon Hill","cz":true,"fz":null},"geometry":{"type":"Point","coordinates":[-4.043403,50.615007]}},{"type":"Feature","properties":{"id":"node/326015285","ele":"372","name":"Bagga Tor","cz":false,"fz":null},"geometry":{"type":"Point","coordinates":[-4.053114,50.606954]}},{"type":"Feature","properties":{"id":"node/326016205","ele":null,"name":"Ger Tor","cz":true,"fz":"willsworth"},"geometry":{"type":"Point","coordinates":[-4.055892,50.629748]}},{"type":"Feature","properties":{"id":"node/326017181","ele":null,"name":"Tavy Cleave Tors","cz":true,"fz":"willsworth"},"geometry":{"type":"Point","coordinates":[-4.046194,50.631487]}},{"type":"Feature","properties":{"id":"node/326018639","ele":null,"name":"White Hill","cz":true,"fz":"willsworth"},"geometry":{"type":"Point","coordinates":[-4.075808,50.63537]}},{"type":"Feature","properties":{"id":"node/326032053","ele":null,"name":"Hare Tor","cz":true,"fz":"willsworth"},"geometry":{"type":"Point","coordinates":[-4.050676,50.63979]}},{"type":"Feature","properties":{"id":"node/326032585","ele":null,"name":"Doe Tor","cz":true,"fz":null},"geometry":{"type":"Point","coordinates":[-4.063466,50.644889]}},{"type":"Feature","properties":{"id":"node/326033330","ele":null,"name":"Sharp Tor","cz":true,"fz":"willsworth"},"geometry":{"type":"Point","coordinates":[-4.051697,50.64479]}},{"type":"Feature","properties":{"id":"node/326033640","ele":"541","name":"Chat Tor","cz":true,"fz":"willsworth"},"geometry":{"type":"Point","coordinates":[-4.044866,50.649192]}},{"type":"Feature","properties":{"id":"node/326034648","ele":null,"name":"Brat Tor","cz":true,"fz":null},"geometry":{"type":"Point","coordinates":[-4.067271,50.651437]}},{"type":"Feature","properties":{"id":"node/326034932","ele":null,"name":"Green Tor","cz":true,"fz":null},"geometry":{"type":"Point","coordinates":[-4.035924,50.658973]}},{"type":"Feature","properties":{"id":"node/326035310","ele":"582","name":"Great Links Tor","cz":true,"fz":null},"geometry":{"type":"Point","coordinates":[-4.05175,50.662457]}},{"type":"Feature","properties":{"id":"node/326035690","ele":null,"name":"Little Links Tor","cz":true,"fz":null},"geometry":{"type":"Point","coordinates":[-4.057092,50.664252]}},{"type":"Feature","properties":{"id":"node/326036629","ele":"585","name":"Kitty Tor","cz":true,"fz":null},"geometry":{"type":"Point","coordinates":[-4.028902,50.669032]}},{"type":"Feature","properties":{"id":"node/326037367","ele":"498","name":"Lints Tor","cz":true,"fz":"okehampton"},"geometry":{"type":"Point","coordinates":[-4.01171,50.669922]}},{"type":"Feature","properties":{"id":"node/326037787","ele":"512","name":"Gren Tor","cz":true,"fz":null},"geometry":{"type":"Point","coordinates":[-4.05203,50.67333]}},{"type":"Feature","properties":{"id":"node/326039985","ele":null,"name":"Arms Tor","cz":true,"fz":null},"geometry":{"type":"Point","coordinates":[-4.066326,50.657412]}},{"type":"Feature","properties":{"id":"node/326040389","ele":"437","name":"Great Nodden","cz":true,"fz":null},"geometry":{"type":"Point","coordinates":[-4.069,50.668026]}},{"type":"Feature","properties":{"id":"node/326040892","ele":null,"name":"Dunna Goat Tors","cz":true,"fz":null},"geometry":{"type":"Point","coordinates":[-4.041975,50.6588]}},{"type":"Feature","properties":{"id":"node/326042602","ele":"441","name":"Sourton Tors","cz":true,"fz":null},"geometry":{"type":"Point","coordinates":[-4.063793,50.689877]}},{"type":"Feature","properties":{"id":"node/326043858","ele":null,"name":"Branscombe's Loaf","cz":true,"fz":null},"geometry":{"type":"Point","coordinates":[-4.049618,50.683712]}},{"type":"Feature","properties":{"id":"node/326046325","ele":"477","name":"Black Tor","cz":false,"fz":null},"geometry":{"type":"Point","coordinates":[-4.030852,50.687643]}},{"type":"Feature","properties":{"id":"node/326050351","ele":"550","name":"Dinger Tor","cz":true,"fz":"okehampton"},"geometry":{"type":"Point","coordinates":[-4.00205,50.675416]}},{"type":"Feature","properties":{"id":"node/326050908","ele":"513","name":"East Mill Tor","cz":true,"fz":"okehampton"},"geometry":{"type":"Point","coordinates":[-3.984416,50.69166]}},{"type":"Feature","properties":{"id":"node/326051967","ele":"468","name":"Oke Tor","cz":true,"fz":"okehampton"},"geometry":{"type":"Point","coordinates":[-3.965531,50.692805]}},{"type":"Feature","properties":{"id":"node/326052545","ele":null,"name":"Steeperton Tor","cz":true,"fz":"okehampton"},"geometry":{"type":"Point","coordinates":[-3.956901,50.681706]}},{"type":"Feature","properties":{"id":"node/326053197","ele":"458","name":"Metheral Hill","cz":true,"fz":null},"geometry":{"type":"Point","coordinates":[-3.949052,50.689923]}},{"type":"Feature","properties":{"id":"node/326053388","ele":"500","name":"Little Hound Tor","cz":true,"fz":null},"geometry":{"type":"Point","coordinates":[-3.937062,50.692887]}},{"type":"Feature","properties":{"id":"node/326053647","ele":null,"name":"Hound Tor","cz":true,"fz":null},"geometry":{"type":"Point","coordinates":[-3.942397,50.684563]}},{"type":"Feature","properties":{"id":"node/326054399","ele":"478","name":"Kennon Hill","cz":true,"fz":null},"geometry":{"type":"Point","coordinates":[-3.923111,50.687871]}},{"type":"Feature","properties":{"id":"node/326054754","ele":null,"name":"Buttern Hill","cz":true,"fz":null},"geometry":{"type":"Point","coordinates":[-3.90708,50.679536]}},{"type":"Feature","properties":{"id":"node/326055309","ele":null,"name":"Shilstone Tor","cz":false,"fz":null},"geometry":{"type":"Point","coordinates":[-3.901158,50.695469]}},{"type":"Feature","properties":{"id":"node/326055830","ele":"420","name":"Winter Tor","cz":true,"fz":null},"geometry":{"type":"Point","coordinates":[-3.970411,50.707213]}},{"type":"Feature","properties":{"id":"node/326056089","ele":"470","name":"Higher Tor","cz":true,"fz":null},"geometry":{"type":"Point","coordinates":[-3.965819,50.708578]}},{"type":"Feature","properties":{"id":"node/326057996","ele":"460","name":"Belstone Common Tor","cz":true,"fz":null},"geometry":{"type":"Point","coordinates":[-3.961942,50.714309]}},{"type":"Feature","properties":{"id":"node/326059028","ele":"564","name":"Okement Hill","cz":true,"fz":"okehampton"},"geometry":{"type":"Point","coordinates":[-3.98032,50.672379]}},{"type":"Feature","properties":{"id":"node/326059801","ele":"531","name":"Wild Tor","cz":true,"fz":"okehampton"},"geometry":{"type":"Point","coordinates":[-3.950107,50.672859]}},{"type":"Feature","properties":{"id":"node/326060480","ele":null,"name":"Watern Tor","cz":true,"fz":null},"geometry":{"type":"Point","coordinates":[-3.941327,50.665211]}},{"type":"Feature","properties":{"id":"node/326061280","ele":"500","name":"Manga Hill","cz":false,"fz":null},"geometry":{"type":"Point","coordinates":[-3.934359,50.64888]}},{"type":"Feature","properties":{"id":"node/326061774","ele":"603","name":"Hangingstone Hill","cz":true,"fz":"okehampton"},"geometry":{"type":"Point","coordinates":[-3.957652,50.658283]}},{"type":"Feature","properties":{"id":"node/326063679","ele":null,"name":"Whitehorse Hill","cz":true,"fz":"okehampton"},"geometry":{"type":"Point","coordinates":[-3.958321,50.6513]}},{"type":"Feature","properties":{"id":"node/326064075","ele":"410","name":"Middle Tor","cz":true,"fz":null},"geometry":{"type":"Point","coordinates":[-3.884292,50.656839]}},{"type":"Feature","properties":{"id":"node/326066689","ele":"437","name":"Kestor Rocks","cz":false,"fz":null},"geometry":{"type":"Point","coordinates":[-3.889536,50.660823]}},{"type":"Feature","properties":{"id":"node/326067126","ele":null,"name":"Black Hill","cz":true,"fz":"okehampton"},"geometry":{"type":"Point","coordinates":[-3.975756,50.644425]}},{"type":"Feature","properties":{"id":"node/326067321","ele":"603","name":"Cut Hill","cz":true,"fz":"okehampton"},"geometry":{"type":"Point","coordinates":[-3.983315,50.627436]}},{"type":"Feature","properties":{"id":"node/326068007","ele":"572","name":"Fur Tor","cz":true,"fz":"okehampton"},"geometry":{"type":"Point","coordinates":[-3.998147,50.629854]}},{"type":"Feature","properties":{"id":"node/326068458","ele":null,"name":"Little Kneeset","cz":true,"fz":"okehampton"},"geometry":{"type":"Point","coordinates":[-4.00177,50.640178]}},{"type":"Feature","properties":{"id":"node/326070283","ele":null,"name":"Great Kneeset","cz":true,"fz":"okehampton"},"geometry":{"type":"Point","coordinates":[-3.997803,50.655273]}},{"type":"Feature","properties":{"id":"node/326073244","ele":"415","name":"Longstone Hill","cz":true,"fz":null},"geometry":{"type":"Point","coordinates":[-4.03102,50.701286]}},{"type":"Feature","properties":{"id":"node/326073716","ele":null,"name":"Homerton Hill","cz":true,"fz":null},"geometry":{"type":"Point","coordinates":[-4.036577,50.694523]}},{"type":"Feature","properties":{"id":"node/329366593","ele":"420","name":"Laughter Tor","cz":false,"fz":null},"geometry":{"type":"Point","coordinates":[-3.903305,50.565471]}},{"type":"Feature","properties":{"id":"node/329367053","ele":"381","name":"Riddon Ridge","cz":true,"fz":null},"geometry":{"type":"Point","coordinates":[-3.884235,50.571721]}},{"type":"Feature","properties":{"id":"node/329369322","ele":"386","name":"Sharp Tor","cz":false,"fz":null},"geometry":{"type":"Point","coordinates":[-3.855022,50.541582]}},{"type":"Feature","properties":{"id":"node/329369423","ele":null,"name":"Mel Tor","cz":false,"fz":null},"geometry":{"type":"Point","coordinates":[-3.845026,50.5384]}},{"type":"Feature","properties":{"id":"node/329376040","ele":null,"name":"Bel Tor","cz":false,"fz":null},"geometry":{"type":"Point","coordinates":[-3.841227,50.541935]}},{"type":"Feature","properties":{"id":"node/329376361","ele":"359","name":"Combestone Tor","cz":false,"fz":null},"geometry":{"type":"Point","coordinates":[-3.8776,50.531224]}},{"type":"Feature","properties":{"id":"node/329379483","ele":null,"name":"Aish Tor","cz":false,"fz":null},"geometry":{"type":"Point","coordinates":[-3.831914,50.529033]}},{"type":"Feature","properties":{"id":"node/329380222","ele":null,"name":"Hockinston Tor","cz":false,"fz":null},"geometry":{"type":"Point","coordinates":[-3.842022,50.53182]}},{"type":"Feature","properties":{"id":"node/329382598","ele":null,"name":"Leigh Tor","cz":false,"fz":null},"geometry":{"type":"Point","coordinates":[-3.821214,50.528704]}},{"type":"Feature","properties":{"id":"node/329384494","ele":"516","name":"Ryder's Hill","cz":true,"fz":null},"geometry":{"type":"Point","coordinates":[-3.891323,50.505964]}},{"type":"Feature","properties":{"id":"node/329384992","ele":null,"name":"Scorriton Down","cz":false,"fz":null},"geometry":{"type":"Point","coordinates":[-3.851291,50.500002]}},{"type":"Feature","properties":{"id":"node/329386493","ele":null,"name":"Snowdon","cz":true,"fz":null},"geometry":{"type":"Point","coordinates":[-3.877727,50.500221]}},{"type":"Feature","properties":{"id":"node/329386957","ele":"473","name":"Pupers Hill","cz":true,"fz":null},"geometry":{"type":"Point","coordinates":[-3.872442,50.491104]}},{"type":"Feature","properties":{"id":"node/329389854","ele":null,"name":"Hickaton Hill","cz":true,"fz":null},"geometry":{"type":"Point","coordinates":[-3.872492,50.483348]}},{"type":"Feature","properties":{"id":"node/329390078","ele":null,"name":"Wallaford Down","cz":false,"fz":null},"geometry":{"type":"Point","coordinates":[-3.825628,50.478378]}},{"type":"Feature","properties":{"id":"node/329390713","ele":null,"name":"Grippers Hill","cz":true,"fz":null},"geometry":{"type":"Point","coordinates":[-3.853243,50.47474]}},{"type":"Feature","properties":{"id":"node/329392162","ele":null,"name":"Shipley Tor","cz":false,"fz":null},"geometry":{"type":"Point","coordinates":[-3.853558,50.453669]}},{"type":"Feature","properties":{"id":"node/329392525","ele":null,"name":"Black Tor","cz":true,"fz":null},"geometry":{"type":"Point","coordinates":[-3.859544,50.456495]}},{"type":"Feature","properties":{"id":"node/329394358","ele":null,"name":"Quickbeam Hill","cz":true,"fz":null},"geometry":{"type":"Point","coordinates":[-3.894636,50.466906]}},{"type":"Feature","properties":{"id":"node/329396438","ele":"473","name":"Green Hill","cz":true,"fz":null},"geometry":{"type":"Point","coordinates":[-3.923652,50.494047]}},{"type":"Feature","properties":{"id":"node/329397211","ele":"438","name":"Fox Tor","cz":true,"fz":null},"geometry":{"type":"Point","coordinates":[-3.939157,50.511833]}},{"type":"Feature","properties":{"id":"node/329397387","ele":null,"name":"Great Gnats Head","cz":true,"fz":null},"geometry":{"type":"Point","coordinates":[-3.952486,50.494652]}},{"type":"Feature","properties":{"id":"node/329418125","ele":null,"name":"Peat Cot Hill","cz":true,"fz":null},"geometry":{"type":"Point","coordinates":[-3.964931,50.525164]}},{"type":"Feature","properties":{"id":"node/329419566","ele":null,"name":"Ter Hill","cz":true,"fz":null},"geometry":{"type":"Point","coordinates":[-3.916609,50.518725]}},{"type":"Feature","properties":{"id":"node/329423397","ele":null,"name":"Skir Hill","cz":true,"fz":null},"geometry":{"type":"Point","coordinates":[-3.905193,50.518179]}},{"type":"Feature","properties":{"id":"node/329424592","ele":null,"name":"Down Ridge","cz":true,"fz":null},"geometry":{"type":"Point","coordinates":[-3.899373,50.529388]}},{"type":"Feature","properties":{"id":"node/329427403","ele":null,"name":"Hen Tor","cz":true,"fz":null},"geometry":{"type":"Point","coordinates":[-3.983969,50.470579]}},{"type":"Feature","properties":{"id":"node/329428503","ele":null,"name":"Shell Top","cz":true,"fz":null},"geometry":{"type":"Point","coordinates":[-3.977017,50.457242]}},{"type":"Feature","properties":{"id":"node/329429073","ele":null,"name":"Sheeps Tor","cz":true,"fz":null},"geometry":{"type":"Point","coordinates":[-4.023651,50.496016]}},{"type":"Feature","properties":{"id":"node/329429478","ele":null,"name":"Gutter Tor","cz":false,"fz":null},"geometry":{"type":"Point","coordinates":[-4.005866,50.484254]}},{"type":"Feature","properties":{"id":"node/329429604","ele":"310","name":"Legis Tor","cz":false,"fz":null},"geometry":{"type":"Point","coordinates":[-4.015228,50.472533]}},{"type":"Feature","properties":{"id":"node/329429881","ele":null,"name":"Shavercombe Tor","cz":true,"fz":null},"geometry":{"type":"Point","coordinates":[-3.984342,50.477787]}},{"type":"Feature","properties":{"id":"node/329430581","ele":"435","name":"Eylesbarrow","cz":false,"fz":null},"geometry":{"type":"Point","coordinates":[-3.975914,50.500428]}},{"type":"Feature","properties":{"id":"node/329431268","ele":"371","name":"Combeshead Tor","cz":false,"fz":null},"geometry":{"type":"Point","coordinates":[-3.993256,50.502077]}},{"type":"Feature","properties":{"id":"node/329431692","ele":"366","name":"Down Tor","cz":false,"fz":null},"geometry":{"type":"Point","coordinates":[-4.003426,50.507089]}},{"type":"Feature","properties":{"id":"node/329436943","ele":null,"name":"Wigford Down","cz":false,"fz":null},"geometry":{"type":"Point","coordinates":[-4.04956,50.466578]}},{"type":"Feature","properties":{"id":"node/329438304","ele":"227","name":"Dewerstone Rock","cz":false,"fz":null},"geometry":{"type":"Point","coordinates":[-4.061194,50.456638]}},{"type":"Feature","properties":{"id":"node/329439525","ele":null,"name":"Rook Tor","cz":true,"fz":null},"geometry":{"type":"Point","coordinates":[-3.968021,50.437613]}},{"type":"Feature","properties":{"id":"node/329439781","ele":null,"name":"Penn Beacon","cz":true,"fz":null},"geometry":{"type":"Point","coordinates":[-3.974459,50.449365]}},{"type":"Feature","properties":{"id":"node/329445137","ele":null,"name":"Sharp Tor","cz":true,"fz":null},"geometry":{"type":"Point","coordinates":[-3.90382,50.439582]}},{"type":"Feature","properties":{"id":"node/329445279","ele":"387","name":"Piles Hill","cz":true,"fz":null},"geometry":{"type":"Point","coordinates":[-3.897297,50.431982]}},{"type":"Feature","properties":{"id":"node/329447020","ele":null,"name":"Burford Down","cz":false,"fz":null},"geometry":{"type":"Point","coordinates":[-3.919269,50.426351]}},{"type":"Feature","properties":{"id":"node/329448124","ele":null,"name":"Weatherdon Hill","cz":true,"fz":null},"geometry":{"type":"Point","coordinates":[-3.900987,50.414155]}},{"type":"Feature","properties":{"id":"node/329448759","ele":"367","name":"Butterdon Hill","cz":true,"fz":null},"geometry":{"type":"Point","coordinates":[-3.893177,50.412515]}},{"type":"Feature","properties":{"id":"node/329449852","ele":"375","name":"Ugborough Beacon","cz":true,"fz":null},"geometry":{"type":"Point","coordinates":[-3.875432,50.41686]}},{"type":"Feature","properties":{"id":"node/329453484","ele":null,"name":"Western Beacon","cz":false,"fz":null},"geometry":{"type":"Point","coordinates":[-3.894876,50.402997]}},{"type":"Feature","properties":{"id":"node/329464330","ele":null,"name":"Holwell Tor","cz":false,"fz":null},"geometry":{"type":"Point","coordinates":[-3.765883,50.585276]}},{"type":"Feature","properties":{"id":"node/329471448","ele":null,"name":"Chinkwell Tor","cz":true,"fz":null},"geometry":{"type":"Point","coordinates":[-3.796369,50.589861]}},{"type":"Feature","properties":{"id":"node/329472099","ele":null,"name":"Honeybag Tor","cz":true,"fz":null},"geometry":{"type":"Point","coordinates":[-3.797753,50.593931]}},{"type":"Feature","properties":{"id":"node/329474879","ele":null,"name":"Hameldown Beacon","cz":true,"fz":null},"geometry":{"type":"Point","coordinates":[-3.826143,50.595556]}},{"type":"Feature","properties":{"id":"node/329481730","ele":null,"name":"King Tor","cz":false,"fz":null},"geometry":{"type":"Point","coordinates":[-3.825628,50.61985]}},{"type":"Feature","properties":{"id":"node/329483516","ele":"497","name":"Hookney Tor","cz":false,"fz":null},"geometry":{"type":"Point","coordinates":[-3.840987,50.616664]}},{"type":"Feature","properties":{"id":"node/329483755","ele":null,"name":"Shapley Tor","cz":false,"fz":null},"geometry":{"type":"Point","coordinates":[-3.83979,50.623716]}},{"type":"Feature","properties":{"id":"node/329484323","ele":null,"name":"Easdon Tor","cz":true,"fz":null},"geometry":{"type":"Point","coordinates":[-3.797623,50.62658]}},{"type":"Feature","properties":{"id":"node/329485220","ele":null,"name":"Challacombe Down","cz":false,"fz":null},"geometry":{"type":"Point","coordinates":[-3.852321,50.609284]}},{"type":"Feature","properties":{"id":"node/329486042","ele":"487","name":"Birch Tor","cz":false,"fz":null},"geometry":{"type":"Point","coordinates":[-3.858054,50.616821]}},{"type":"Feature","properties":{"id":"node/329486381","ele":null,"name":"Water Hill","cz":true,"fz":null},"geometry":{"type":"Point","coordinates":[-3.879159,50.61603]}},{"type":"Feature","properties":{"id":"node/329486412","ele":null,"name":"Assycombe Hill","cz":false,"fz":null},"geometry":{"type":"Point","coordinates":[-3.889829,50.623498]}},{"type":"Feature","properties":{"id":"node/329486719","ele":"504","name":"White Ridge","cz":false,"fz":null},"geometry":{"type":"Point","coordinates":[-3.909571,50.624369]}},{"type":"Feature","properties":{"id":"node/329489124","ele":null,"name":"Hunter's Tor","cz":false,"fz":null},"geometry":{"type":"Point","coordinates":[-3.754023,50.628747]}},{"type":"Feature","properties":{"id":"node/330102418","ele":null,"name":"Three Barrows","cz":true,"fz":null},"geometry":{"type":"Point","coordinates":[-3.898343,50.447637]}},{"type":"Feature","properties":{"id":"node/330108575","ele":null,"name":"Calveslake Tor","cz":true,"fz":null},"geometry":{"type":"Point","coordinates":[-3.963161,50.491365]}},{"type":"Feature","properties":{"id":"node/330108868","ele":"333","name":"Eastern Tor","cz":false,"fz":null},"geometry":{"type":"Point","coordinates":[-3.996019,50.481425]}},{"type":"Feature","properties":{"id":"node/330269594","ele":"295","name":"Great Combe Tor","cz":true,"fz":null},"geometry":{"type":"Point","coordinates":[-4.088117,50.578521]}},{"type":"Feature","properties":{"id":"node/330269758","ele":null,"name":"Gibbet Hill","cz":true,"fz":null},"geometry":{"type":"Point","coordinates":[-4.116612,50.610668]}},{"type":"Feature","properties":{"id":"node/330269775","ele":null,"name":"Kingsett Down","cz":true,"fz":null},"geometry":{"type":"Point","coordinates":[-4.094897,50.612628]}},{"type":"Feature","properties":{"id":"node/330270902","ele":null,"name":"Nat Tor","cz":true,"fz":"willsworth"},"geometry":{"type":"Point","coordinates":[-4.057389,50.623302]}},{"type":"Feature","properties":{"id":"node/330282479","ele":"378","name":"Scorhill Tor","cz":false,"fz":null},"geometry":{"type":"Point","coordinates":[-3.89976,50.668167]}},{"type":"Feature","properties":{"id":"node/330282686","ele":"433","name":"Shovel Down","cz":true,"fz":null},"geometry":{"type":"Point","coordinates":[-3.900029,50.656044]}},{"type":"Feature","properties":{"id":"node/330325934","ele":null,"name":"Blackadon Tor","cz":false,"fz":null},"geometry":{"type":"Point","coordinates":[-3.818854,50.54609]}},{"type":"Feature","properties":{"id":"node/330330267","ele":null,"name":"Hollow Tor","cz":true,"fz":null},"geometry":{"type":"Point","coordinates":[-3.792913,50.57188]}},{"type":"Feature","properties":{"id":"node/367992863","ele":null,"name":"Southcott Down","cz":true,"fz":null},"geometry":{"type":"Point","coordinates":[-3.775305,50.607496]}},{"type":"Feature","properties":{"id":"node/431856857","ele":null,"name":"Eastern White Barrow","cz":true,"fz":null},"geometry":{"type":"Point","coordinates":[-3.881917,50.471033]}},{"type":"Feature","properties":{"id":"node/431856858","ele":"486","name":"Western White Barrow","cz":true,"fz":null},"geometry":{"type":"Point","coordinates":[-3.89881,50.473654]}},{"type":"Feature","properties":{"id":"node/568478292","ele":null,"name":"Crockern Tor","cz":false,"fz":null},"geometry":{"type":"Point","coordinates":[-3.956057,50.565391]}},{"type":"Feature","properties":{"id":"node/568478331","ele":"507","name":"Longaford Tor","cz":false,"fz":null},"geometry":{"type":"Point","coordinates":[-3.956689,50.584841]}},{"type":"Feature","properties":{"id":"node/568478334","ele":null,"name":"Littaford Tor","cz":false,"fz":null},"geometry":{"type":"Point","coordinates":[-3.956404,50.57757]}},{"type":"Feature","properties":{"id":"node/568478382","ele":null,"name":"White Hill","cz":true,"fz":null},"geometry":{"type":"Point","coordinates":[-3.946321,50.700723]}},{"type":"Feature","properties":{"id":"node/568517818","ele":"374","name":"Greator Rocks","cz":false,"fz":null},"geometry":{"type":"Point","coordinates":[-3.771575,50.593655]}},{"type":"Feature","properties":{"id":"node/568548166","ele":"366","name":"Butterdon Hill","cz":false,"fz":null},"geometry":{"type":"Point","coordinates":[-3.770381,50.682158]}},{"type":"Feature","properties":{"id":"node/568548185","ele":"180","name":"Hunters Tor","cz":false,"fz":null},"geometry":{"type":"Point","coordinates":[-3.811108,50.692806]}},{"type":"Feature","properties":{"id":"node/568548188","ele":null,"name":"Harton Tor","cz":true,"fz":null},"geometry":{"type":"Point","coordinates":[-3.745911,50.622744]}},{"type":"Feature","properties":{"id":"node/568548216","ele":"424","name":"Thornworthy Tor","cz":false,"fz":null},"geometry":{"type":"Point","coordinates":[-3.890538,50.650534]}},{"type":"Feature","properties":{"id":"node/568548222","ele":"250","name":"Sharp Tor","cz":false,"fz":null},"geometry":{"type":"Point","coordinates":[-3.801306,50.694687]}},{"type":"Feature","properties":{"id":"node/568548233","ele":"323","name":"Willingston Rock","cz":false,"fz":null},"geometry":{"type":"Point","coordinates":[-3.762176,50.685052]}},{"type":"Feature","properties":{"id":"node/568803257","ele":null,"name":"Corringdon Ball","cz":false,"fz":null},"geometry":{"type":"Point","coordinates":[-3.871897,50.433573]}},{"type":"Feature","properties":{"id":"node/568803270","ele":null,"name":"Bonehill Rocks","cz":false,"fz":null},"geometry":{"type":"Point","coordinates":[-3.793051,50.583032]}},{"type":"Feature","properties":{"id":"node/568803275","ele":null,"name":"Bell Tor","cz":true,"fz":null},"geometry":{"type":"Point","coordinates":[-3.794661,50.586603]}},{"type":"Feature","properties":{"id":"node/568803352","ele":null,"name":"Great Trowlesworthy Tor","cz":false,"fz":null},"geometry":{"type":"Point","coordinates":[-4.003012,50.461994]}},{"type":"Feature","properties":{"id":"node/571597936","ele":null,"name":"Barn Hill","cz":true,"fz":null},"geometry":{"type":"Point","coordinates":[-4.072226,50.554314]}},{"type":"Feature","properties":{"id":"node/571597961","ele":"479","name":"Belstone Tor","cz":true,"fz":null},"geometry":{"type":"Point","coordinates":[-3.963681,50.711581]}},{"type":"Feature","properties":{"id":"node/571597968","ele":null,"name":"Feather Tor","cz":true,"fz":null},"geometry":{"type":"Point","coordinates":[-4.069725,50.548566]}},{"type":"Feature","properties":{"id":"node/571597973","ele":"350","name":"East-Hill","cz":false,"fz":null},"geometry":{"type":"Point","coordinates":[-3.990946,50.727641]}},{"type":"Feature","properties":{"id":"node/571597993","ele":null,"name":"Heckwood Tor","cz":true,"fz":null},"geometry":{"type":"Point","coordinates":[-4.065809,50.545748]}},{"type":"Feature","properties":{"id":"node/571598004","ele":null,"name":"Little Staple Tor","cz":true,"fz":null},"geometry":{"type":"Point","coordinates":[-4.064577,50.55969]}},{"type":"Feature","properties":{"id":"node/571598010","ele":"401","name":"King's Tor","cz":true,"fz":null},"geometry":{"type":"Point","coordinates":[-4.038844,50.546731]}},{"type":"Feature","properties":{"id":"node/571598028","ele":"320","name":"Pew Tor","cz":false,"fz":null},"geometry":{"type":"Point","coordinates":[-4.07253,50.542444]}},{"type":"Feature","properties":{"id":"node/571598036","ele":null,"name":"North Hessary Tor","cz":false,"fz":null},"geometry":{"type":"Point","coordinates":[-4.007566,50.550384]}},{"type":"Feature","properties":{"id":"node/571598060","ele":"415","name":"Sharpitor","cz":false,"fz":null},"geometry":{"type":"Point","coordinates":[-4.033078,50.515068]}},{"type":"Feature","properties":{"id":"node/571598065","ele":"365","name":"Scarey Tor","cz":true,"fz":null},"geometry":{"type":"Point","coordinates":[-3.974438,50.715072]}},{"type":"Feature","properties":{"id":"node/571598100","ele":"300","name":"Vixen Tor","cz":false,"fz":null},"geometry":{"type":"Point","coordinates":[-4.059105,50.549742]}},{"type":"Feature","properties":{"id":"node/571631868","ele":null,"name":"Corndon Tor","cz":false,"fz":null},"geometry":{"type":"Point","coordinates":[-3.856247,50.552597]}},{"type":"Feature","properties":{"id":"node/600405277","ele":"315","name":"Heltor Rock","cz":false,"fz":null},"geometry":{"type":"Point","coordinates":[-3.700023,50.670456]}},{"type":"Feature","properties":{"id":"node/844179820","ele":"457","name":"Haytor Rocks","cz":false,"fz":null},"geometry":{"type":"Point","coordinates":[-3.756779,50.579843]}},{"type":"Feature","properties":{"id":"node/886681227","ele":null,"name":"Hameldown Tor","cz":true,"fz":null},"geometry":{"type":"Point","coordinates":[-3.834284,50.610597]}},{"type":"Feature","properties":{"id":"node/1215273373","ele":null,"name":"Higher Hartor","cz":true,"fz":null},"geometry":{"type":"Point","coordinates":[-3.975722,50.492819]}},{"type":"Feature","properties":{"id":"node/1215273422","ele":null,"name":"Lower Hartor","cz":true,"fz":null},"geometry":{"type":"Point","coordinates":[-3.970165,50.490854]}},{"type":"Feature","properties":{"id":"node/1702302554","ele":"538","name":null,"cz":true,"fz":null},"geometry":{"type":"Point","coordinates":[-3.830243,50.604451]}},{"type":"Feature","properties":{"id":"node/1704247151","ele":"404","name":null,"cz":false,"fz":null},"geometry":{"type":"Point","coordinates":[-3.951094,50.530907]}},{"type":"Feature","properties":{"id":"node/1705755670","ele":"504","name":null,"cz":true,"fz":null},"geometry":{"type":"Point","coordinates":[-3.878511,50.499097]}},{"type":"Feature","properties":{"id":"node/1705765644","ele":"478","name":null,"cz":false,"fz":null},"geometry":{"type":"Point","coordinates":[-3.887292,50.486712]}},{"type":"Feature","properties":{"id":"node/1707024068","ele":"550","name":"Cosdon Beacon","cz":true,"fz":null},"geometry":{"type":"Point","coordinates":[-3.933078,50.707023]}},{"type":"Feature","properties":{"id":"node/1719523100","ele":"335.9","name":"Cranbrook Down","cz":true,"fz":null},"geometry":{"type":"Point","coordinates":[-3.787784,50.686239]}},{"type":"Feature","properties":{"id":"node/1794723531","ele":null,"name":"Brent Hill","cz":false,"fz":null},"geometry":{"type":"Point","coordinates":[-3.827791,50.440591]}},{"type":"Feature","properties":{"id":"node/1833971133","ele":"406","name":"Black Hill","cz":true,"fz":null},"geometry":{"type":"Point","coordinates":[-3.75266,50.594387]}},{"type":"Feature","properties":{"id":"node/1833971160","ele":null,"name":"Smallacombe Rocks","cz":true,"fz":null},"geometry":{"type":"Point","coordinates":[-3.759284,50.590539]}},{"type":"Feature","properties":{"id":"node/1835105520","ele":null,"name":"Great Staple Tor","cz":true,"fz":null},"geometry":{"type":"Point","coordinates":[-4.059123,50.565393]}},{"type":"Feature","properties":{"id":"node/1885949499","ele":null,"name":"Tunhill Rocks","cz":true,"fz":null},"geometry":{"type":"Point","coordinates":[-3.792592,50.568052]}},{"type":"Feature","properties":{"id":"node/2001777155","ele":"471","name":"Crane Hill","cz":true,"fz":null},"geometry":{"type":"Point","coordinates":[-3.944551,50.504188]}},{"type":"Feature","properties":{"id":"node/2069746069","ele":"360","name":"Blackingstone Rock","cz":false,"fz":null},"geometry":{"type":"Point","coordinates":[-3.718314,50.657314]}},{"type":"Feature","properties":{"id":"node/2098061261","ele":null,"name":"Whitabuttow","cz":true,"fz":null},"geometry":{"type":"Point","coordinates":[-3.790445,50.564078]}},{"type":"Feature","properties":{"id":"node/2301676296","ele":null,"name":"Amicombe Hill","cz":true,"fz":"okehampton"},"geometry":{"type":"Point","coordinates":[-4.0234,50.657989]}},{"type":"Feature","properties":{"id":"node/2301676297","ele":"538","name":"Steng-a-Tor","cz":true,"fz":null},"geometry":{"type":"Point","coordinates":[-4.028042,50.673891]}},{"type":"Feature","properties":{"id":"node/2383223172","ele":"400","name":"Ladybrook Tor","cz":true,"fz":null},"geometry":{"type":"Point","coordinates":[-3.949826,50.713903]}},{"type":"Feature","properties":{"id":"node/2428449403","ele":"430","name":"Tors End","cz":true,"fz":null},"geometry":{"type":"Point","coordinates":[-3.963455,50.715963]}},{"type":"Feature","properties":{"id":"node/2619051872","ele":null,"name":"Herne Hole Tor","cz":false,"fz":null},"geometry":{"type":"Point","coordinates":[-4.007947,50.552989]}},{"type":"Feature","properties":{"id":"node/2619184413","ele":"454","name":"Roos Tor","cz":true,"fz":null},"geometry":{"type":"Point","coordinates":[-4.058185,50.570766]}},{"type":"Feature","properties":{"id":"node/2722283780","ele":null,"name":"Little Trowlesworthy Tor","cz":false,"fz":null},"geometry":{"type":"Point","coordinates":[-4.006297,50.463653]}},{"type":"Feature","properties":{"id":"node/2856115068","ele":"342","name":null,"cz":false,"fz":null},"geometry":{"type":"Point","coordinates":[-3.730726,50.678464]}},{"type":"Feature","properties":{"id":"node/3009441071","ele":null,"name":"Black Ridge","cz":true,"fz":"okehampton"},"geometry":{"type":"Point","coordinates":[-3.987692,50.652903]}},{"type":"Feature","properties":{"id":"node/3009441072","ele":null,"name":"Royal Hill","cz":false,"fz":null},"geometry":{"type":"Point","coordinates":[-3.952567,50.537039]}},{"type":"Feature","properties":{"id":"node/3009441073","ele":null,"name":"South Down","cz":false,"fz":null},"geometry":{"type":"Point","coordinates":[-4.046389,50.702989]}},{"type":"Feature","properties":{"id":"node/3009441074","ele":null,"name":null,"cz":false,"fz":null},"geometry":{"type":"Point","coordinates":[-3.96283,50.539546]}},{"type":"Feature","properties":{"id":"node/3009441075","ele":null,"name":null,"cz":false,"fz":null},"geometry":{"type":"Point","coordinates":[-3.926831,50.542351]}},{"type":"Feature","properties":{"id":"node/3009441076","ele":null,"name":null,"cz":false,"fz":null},"geometry":{"type":"Point","coordinates":[-3.918552,50.543939]}},{"type":"Feature","properties":{"id":"node/3009441077","ele":null,"name":"Roundhill","cz":false,"fz":null},"geometry":{"type":"Point","coordinates":[-3.963382,50.552742]}},{"type":"Feature","properties":{"id":"node/3009441078","ele":null,"name":null,"cz":false,"fz":null},"geometry":{"type":"Point","coordinates":[-3.883291,50.553543]}},{"type":"Feature","properties":{"id":"node/3009441079","ele":null,"name":null,"cz":false,"fz":null},"geometry":{"type":"Point","coordinates":[-3.895163,50.556595]}},{"type":"Feature","properties":{"id":"node/3009441080","ele":null,"name":null,"cz":false,"fz":null},"geometry":{"type":"Point","coordinates":[-3.856743,50.55755]}},{"type":"Feature","properties":{"id":"node/3009441081","ele":null,"name":null,"cz":false,"fz":null},"geometry":{"type":"Point","coordinates":[-3.862953,50.563603]}},{"type":"Feature","properties":{"id":"node/3009441082","ele":null,"name":null,"cz":false,"fz":null},"geometry":{"type":"Point","coordinates":[-3.95519,50.569042]}},{"type":"Feature","properties":{"id":"node/3009441085","ele":"505","name":null,"cz":true,"fz":"merrivale"},"geometry":{"type":"Point","coordinates":[-4.002881,50.586446]}},{"type":"Feature","properties":{"id":"node/3009441086","ele":null,"name":null,"cz":true,"fz":"merrivale"},"geometry":{"type":"Point","coordinates":[-4.007072,50.595352]}},{"type":"Feature","properties":{"id":"node/3009441087","ele":"515","name":"Braddon Tor","cz":true,"fz":null},"geometry":{"type":"Point","coordinates":[-3.946897,50.603122]}},{"type":"Feature","properties":{"id":"node/3009441088","ele":null,"name":null,"cz":true,"fz":null},"geometry":{"type":"Point","coordinates":[-3.88899,50.60329]}},{"type":"Feature","properties":{"id":"node/3009441089","ele":"539","name":null,"cz":true,"fz":null},"geometry":{"type":"Point","coordinates":[-3.960058,50.606939]}},{"type":"Feature","properties":{"id":"node/3009441090","ele":"530","name":null,"cz":true,"fz":null},"geometry":{"type":"Point","coordinates":[-3.953536,50.611449]}},{"type":"Feature","properties":{"id":"node/3009441092","ele":null,"name":null,"cz":true,"fz":null},"geometry":{"type":"Point","coordinates":[-4.089484,50.622497]}},{"type":"Feature","properties":{"id":"node/3009441093","ele":"539","name":"Winney's Down","cz":true,"fz":null},"geometry":{"type":"Point","coordinates":[-3.950317,50.626204]}},{"type":"Feature","properties":{"id":"node/3009441094","ele":null,"name":null,"cz":false,"fz":null},"geometry":{"type":"Point","coordinates":[-3.920277,50.637032]}},{"type":"Feature","properties":{"id":"node/3009441095","ele":null,"name":null,"cz":true,"fz":"okehampton"},"geometry":{"type":"Point","coordinates":[-3.992981,50.641432]}},{"type":"Feature","properties":{"id":"node/3009441096","ele":"434","name":null,"cz":false,"fz":null},"geometry":{"type":"Point","coordinates":[-3.922595,50.651337]}},{"type":"Feature","properties":{"id":"node/3009441097","ele":null,"name":null,"cz":true,"fz":"okehampton"},"geometry":{"type":"Point","coordinates":[-3.977087,50.667073]}},{"type":"Feature","properties":{"id":"node/3009441098","ele":"547","name":null,"cz":true,"fz":"okehampton"},"geometry":{"type":"Point","coordinates":[-3.951096,50.667501]}},{"type":"Feature","properties":{"id":"node/3009441099","ele":"465","name":null,"cz":true,"fz":null},"geometry":{"type":"Point","coordinates":[-3.938556,50.674893]}},{"type":"Feature","properties":{"id":"node/3009441100","ele":"421","name":"Rival Tor","cz":true,"fz":null},"geometry":{"type":"Point","coordinates":[-3.921524,50.676204]}},{"type":"Feature","properties":{"id":"node/3009441101","ele":"436","name":"Hart Tor","cz":true,"fz":null},"geometry":{"type":"Point","coordinates":[-3.982558,50.703148]}},{"type":"Feature","properties":{"id":"node/3009441102","ele":"414","name":"Halstock Hill","cz":true,"fz":null},"geometry":{"type":"Point","coordinates":[-3.982981,50.716125]}},{"type":"Feature","properties":{"id":"node/3009441103","ele":"341","name":null,"cz":false,"fz":null},"geometry":{"type":"Point","coordinates":[-3.999295,50.725183]}},{"type":"Feature","properties":{"id":"node/3009441104","ele":null,"name":null,"cz":false,"fz":null},"geometry":{"type":"Point","coordinates":[-3.915345,50.732338]}},{"type":"Feature","properties":{"id":"node/3009441105","ele":null,"name":null,"cz":false,"fz":null},"geometry":{"type":"Point","coordinates":[-3.950666,50.733301]}},{"type":"Feature","properties":{"id":"node/3009441106","ele":null,"name":null,"cz":false,"fz":null},"geometry":{"type":"Point","coordinates":[-3.915052,50.734724]}},{"type":"Feature","properties":{"id":"node/3203029951","ele":null,"name":"Rundelstone Tor","cz":false,"fz":null},"geometry":{"type":"Point","coordinates":[-4.011004,50.553754]}},{"type":"Feature","properties":{"id":"node/3691663203","ele":"317","name":"Cuckoo Rock","cz":false,"fz":null},"geometry":{"type":"Point","coordinates":[-3.997081,50.501063]}},{"type":"Feature","properties":{"id":"node/3965873001","ele":"562","name":"Hunt Tor","cz":true,"fz":null},"geometry":{"type":"Point","coordinates":[-4.043361,50.669079]}},{"type":"Feature","properties":{"id":"node/4017973706","ele":"540","name":"Flat Tor","cz":true,"fz":"merrivale"},"geometry":{"type":"Point","coordinates":[-3.967433,50.616848]}},{"type":"Feature","properties":{"id":"node/4195634344","ele":"410","name":"Black Down","cz":true,"fz":"okehampton"},"geometry":{"type":"Point","coordinates":[-4.009604,50.709613]}},{"type":"Feature","properties":{"id":"node/4524671068","ele":null,"name":null,"cz":false,"fz":null},"geometry":{"type":"Point","coordinates":[-3.654098,50.648008]}},{"type":"Feature","properties":{"id":"node/4876864144","ele":null,"name":"Hedge Down Tor","cz":false,"fz":null},"geometry":{"type":"Point","coordinates":[-3.788544,50.592888]}},{"type":"Feature","properties":{"id":"node/4876871944","ele":null,"name":"Cripdon Down Tor","cz":true,"fz":null},"geometry":{"type":"Point","coordinates":[-3.788936,50.612631]}},{"type":"Feature","properties":{"id":"node/4876877026","ele":null,"name":"Rowden Tor","cz":true,"fz":null},"geometry":{"type":"Point","coordinates":[-3.838235,50.568056]}},{"type":"Feature","properties":{"id":"node/4876880605","ele":"165","name":"Longtimber Tor","cz":false,"fz":null},"geometry":{"type":"Point","coordinates":[-4.106955,50.585001]}},{"type":"Feature","properties":{"id":"node/4876883842","ele":null,"name":"Devils Tor Outcrop","cz":true,"fz":"merrivale"},"geometry":{"type":"Point","coordinates":[-3.983641,50.596692]}},{"type":"Feature","properties":{"id":"node/4880370539","ele":"438","name":"Knattaborough Tor","cz":true,"fz":null},"geometry":{"type":"Point","coordinates":[-3.968634,50.701792]}},{"type":"Feature","properties":{"id":"node/5079606463","ele":null,"name":"Cairn","cz":true,"fz":null},"geometry":{"type":"Point","coordinates":[-3.749454,50.597211]}},{"type":"Feature","properties":{"id":"node/5079612543","ele":"390","name":"Meldon Hill","cz":true,"fz":null},"geometry":{"type":"Point","coordinates":[-3.845808,50.660276]}},{"type":"Feature","properties":{"id":"node/5149552142","ele":"330","name":"Hingston Rocks","cz":false,"fz":null},"geometry":{"type":"Point","coordinates":[-3.742873,50.659236]}},{"type":"Feature","properties":{"id":"node/5243078302","ele":null,"name":"Stinger's Hill","cz":true,"fz":null},"geometry":{"type":"Point","coordinates":[-3.927131,50.478386]}},{"type":"Feature","properties":{"id":"node/6010778049","ele":null,"name":"Spoil tip","cz":true,"fz":null},"geometry":{"type":"Point","coordinates":[-3.907687,50.45556]}},{"type":"Feature","properties":{"id":"node/6010997893","ele":null,"name":"Sampford Tor","cz":true,"fz":null},"geometry":{"type":"Point","coordinates":[-4.073342,50.539245]}},{"type":"Feature","properties":{"id":"node/8224068279","ele":"400","name":"Peak Hill","cz":false,"fz":null},"geometry":{"type":"Point","coordinates":[-4.037165,50.51149]}},{"type":"Feature","properties":{"id":"node/8602352241","ele":"413","name":"Hillson's House;Stalldown Barrow","cz":true,"fz":null},"geometry":{"type":"Point","coordinates":[-3.9215,50.444535]}},{"type":"Feature","properties":{"id":"node/8917024715","ele":null,"name":"Glasscombe Ball","cz":true,"fz":null},"geometry":{"type":"Point","coordinates":[-3.889635,50.427643]}},{"type":"Feature","properties":{"id":"node/10019245182","ele":null,"name":"Emsworthy Rocks","cz":false,"fz":null},"geometry":{"type":"Point","coordinates":[-3.766899,50.578161]}},{"type":"Feature","properties":{"id":"node/11010919473","ele":"140","name":"Pixey Copse Tor","cz":false,"fz":null},"geometry":{"type":"Point","coordinates":[-3.683083,50.611158]}},{"type":"Feature","properties":{"id":"node/11341114620","ele":"350","name":"Lower Leather Tor","cz":false,"fz":null},"geometry":{"type":"Point","coordinates":[-4.028322,50.510232]}},{"type":"Feature","properties":{"id":"node/11513969853","ele":null,"name":"Welstor Rock","cz":false,"fz":null},"geometry":{"type":"Point","coordinates":[-3.783961,50.543392]}},{"type":"Feature","properties":{"id":"node/11543680961","ele":"160","name":"Hatherleigh Tor","cz":false,"fz":null},"geometry":{"type":"Point","coordinates":[-3.699644,50.615119]}},{"type":"Feature","properties":{"id":"node/11553722068","ele":"165","name":"Willmead Tor","cz":false,"fz":null},"geometry":{"type":"Point","coordinates":[-3.701858,50.61584]}},{"type":"Feature","properties":{"id":"node/11553734169","ele":"155","name":"Slade Copse Tor","cz":false,"fz":null},"geometry":{"type":"Point","coordinates":[-3.701273,50.618213]}},{"type":"Feature","properties":{"id":"node/11553734170","ele":"185","name":"Northcombe Copse Tor","cz":false,"fz":null},"geometry":{"type":"Point","coordinates":[-3.689672,50.612893]}},{"type":"Feature","properties":{"id":"node/11553744220","ele":"215","name":"Plain Mummeries Tor","cz":false,"fz":null},"geometry":{"type":"Point","coordinates":[-3.723065,50.62457]}},{"type":"Feature","properties":{"id":"node/11553744221","ele":"175","name":"Great Wood Tor","cz":false,"fz":null},"geometry":{"type":"Point","coordinates":[-3.721148,50.62437]}},{"type":"Feature","properties":{"id":"node/11990631462","ele":"180","name":"Rooks Hole Tor","cz":false,"fz":null},"geometry":{"type":"Point","coordinates":[-3.679724,50.611265]}},{"type":"Feature","properties":{"id":"node/11990631463","ele":"230","name":"Bowden Tor","cz":false,"fz":null},"geometry":{"type":"Point","coordinates":[-3.673698,50.610652]}},{"type":"Feature","properties":{"id":"node/11990631464","ele":"210","name":"Stonelands Waste Tor","cz":false,"fz":null},"geometry":{"type":"Point","coordinates":[-3.671567,50.606906]}},{"type":"Feature","properties":{"id":"node/11990631466","ele":"200","name":"Sonny Copse Tor","cz":false,"fz":null},"geometry":{"type":"Point","coordinates":[-3.683026,50.612378]}},{"type":"Feature","properties":{"id":"node/11990631467","ele":"268","name":"Shaptor Rock","cz":false,"fz":null},"geometry":{"type":"Point","coordinates":[-3.683864,50.615357]}},{"type":"Feature","properties":{"id":"node/11990631468","ele":"290","name":"Elsford Rock","cz":false,"fz":null},"geometry":{"type":"Point","coordinates":[-3.717287,50.633948]}},{"type":"Feature","properties":{"id":"node/11990660069","ele":"205","name":"Great Rock","cz":false,"fz":null},"geometry":{"type":"Point","coordinates":[-3.667383,50.624308]}},{"type":"Feature","properties":{"id":"node/12008703490","ele":null,"name":"Bullaton Rock","cz":false,"fz":null},"geometry":{"type":"Point","coordinates":[-3.703205,50.626945]}},{"type":"Feature","properties":{"id":"node/12093032269","ele":"356","name":"Mardon Down","cz":false,"fz":null},"geometry":{"type":"Point","coordinates":[-3.746059,50.673035]}},{"type":"Feature","properties":{"id":"node/12146061413","ele":"424","name":"Yar Tor","cz":false,"fz":null},"geometry":{"type":"Point","coordinates":[-3.866835,50.550857]}},{"type":"Feature","properties":{"id":"node/12165694445","ele":"334","name":"Gidleigh Tor","cz":false,"fz":null},"geometry":{"type":"Point","coordinates":[-3.881966,50.674553]}},{"type":"Feature","properties":{"id":"node/12508531105","ele":null,"name":"Owlacombe Burrow Rock","cz":false,"fz":null},"geometry":{"type":"Point","coordinates":[-3.729743,50.585797]}},{"type":"Feature","properties":{"id":"node/13058356053","ele":null,"name":"Holwell Rocks","cz":false,"fz":null},"geometry":{"type":"Point","coordinates":[-3.78245,50.585353]}},{"type":"Feature","properties":{"id":"node/13464561665","ele":"377","name":"Leighon Tor","cz":true,"fz":null},"geometry":{"type":"Point","coordinates":[-3.755669,50.59465]}},{"type":"Feature","properties":{"id":"node/13506646672","ele":"243","name":"Little Combe Tor","cz":false,"fz":null},"geometry":{"type":"Point","coordinates":[-4.091293,50.580258]}},{"type":"Feature","properties":{"id":"node/13506701448","ele":"348","name":"Sharp Tor","cz":false,"fz":null},"geometry":{"type":"Point","coordinates":[-4.084524,50.57458]}},{"type":"Feature","properties":{"id":"node/13509362095","ele":"363","name":"Set Tor","cz":true,"fz":null},"geometry":{"type":"Point","coordinates":[-4.075152,50.582738]}},{"type":"Feature","properties":{"id":"node/13509362096","ele":"270","name":"Smith Hill Tor","cz":false,"fz":null},"geometry":{"type":"Point","coordinates":[-4.087532,50.590183]}},{"type":"Feature","properties":{"id":"node/13509368543","ele":"430","name":"Little White Tor","cz":true,"fz":null},"geometry":{"type":"Point","coordinates":[-4.066657,50.589851]}},{"type":"Feature","properties":{"id":"node/13509376362","ele":"319","name":"Furze Tor","cz":true,"fz":null},"geometry":{"type":"Point","coordinates":[-4.0841,50.582331]}},{"type":"Feature","properties":{"id":"node/13509406073","ele":"329","name":"Little Boulters Tor","cz":true,"fz":null},"geometry":{"type":"Point","coordinates":[-4.087116,50.583087]}},{"type":"Feature","properties":{"id":"node/13509406783","ele":"332","name":"Smerdon Down Tors","cz":true,"fz":null},"geometry":{"type":"Point","coordinates":[-4.089035,50.584204]}},{"type":"Feature","properties":{"id":"node/13509417905","ele":"370","name":"Wedlake Tor","cz":true,"fz":null},"geometry":{"type":"Point","coordinates":[-4.066917,50.58188]}}]}
